<?xml version="1.0" encoding="UTF-8"?>
<ndm xmlns:xsi="http://www.w3.org/2001/XMLSchema-instance" xsi:noNamespaceSchemaLocation="https://sanaregistry.org/r/ndmxml_unqualified/ndmxml-2.0.0-master-2.0.xsd">
<omm id="CCSDS_OMM_VERS" version="2.0">
<header><CREATION_DATE/><ORIGINATOR/></header><body><segment><metadata><OBJECT_NAME>IRIDIUM 7</OBJECT_NAME><OBJECT_ID>1997-020B</OBJECT_ID><CENTER_NAME>EARTH</CENTER_NAME><REF_FRAME>TEME</REF_FRAME><TIME_SYSTEM>UTC</TIME_SYSTEM><MEAN_ELEMENT_THEORY>SGP4</MEAN_ELEMENT_THEORY></metadata><data><meanElements><EPOCH>2025-04-14T16:38:31.329888</EPOCH><MEAN_MOTION>14.35883780</MEAN_MOTION><ECCENTRICITY>.0002018</ECCENTRICITY><INCLINATION>86.4024</INCLINATION><RA_OF_ASC_NODE>203.4836</RA_OF_ASC_NODE><ARG_OF_PERICENTER>89.4239</ARG_OF_PERICENTER><MEAN_ANOMALY>270.7189</MEAN_ANOMALY></meanElements><tleParameters><EPHEMERIS_TYPE>0</EPHEMERIS_TYPE><CLASSIFICATION_TYPE>U</CLASSIFICATION_TYPE><NORAD_CAT_ID>24793</NORAD_CAT_ID><ELEMENT_SET_NO>999</ELEMENT_SET_NO><REV_AT_EPOCH>46278</REV_AT_EPOCH><BSTAR>.28588E-3</BSTAR><MEAN_MOTION_DOT>.848E-5</MEAN_MOTION_DOT><MEAN_MOTION_DDOT>0</MEAN_MOTION_DDOT></tleParameters></data></segment></body></omm>
<omm id="CCSDS_OMM_VERS" version="2.0">
<header><CREATION_DATE/><ORIGINATOR/></header><body><segment><metadata><OBJECT_NAME>IRIDIUM 5</OBJECT_NAME><OBJECT_ID>1997-020D</OBJECT_ID><CENTER_NAME>EARTH</CENTER_NAME><REF_FRAME>TEME</REF_FRAME><TIME_SYSTEM>UTC</TIME_SYSTEM><MEAN_ELEMENT_THEORY>SGP4</MEAN_ELEMENT_THEORY></metadata><data><meanElements><EPOCH>2025-04-14T22:49:27.721056</EPOCH><MEAN_MOTION>14.93662366</MEAN_MOTION><ECCENTRICITY>.0110513</ECCENTRICITY><INCLINATION>86.3839</INCLINATION><RA_OF_ASC_NODE>112.8904</RA_OF_ASC_NODE><ARG_OF_PERICENTER>6.8604</ARG_OF_PERICENTER><MEAN_ANOMALY>353.4104</MEAN_ANOMALY></meanElements><tleParameters><EPHEMERIS_TYPE>0</EPHEMERIS_TYPE><CLASSIFICATION_TYPE>U</CLASSIFICATION_TYPE><NORAD_CAT_ID>24795</NORAD_CAT_ID><ELEMENT_SET_NO>999</ELEMENT_SET_NO><REV_AT_EPOCH>47602</REV_AT_EPOCH><BSTAR>.80111E-3</BSTAR><MEAN_MOTION_DOT>.9584E-4</MEAN_MOTION_DOT><MEAN_MOTION_DDOT>0</MEAN_MOTION_DDOT></tleParameters></data></segment></body></omm>
<omm id="CCSDS_OMM_VERS" version="2.0">
<header><CREATION_DATE/><ORIGINATOR/></header><body><segment><metadata><OBJECT_NAME>IRIDIUM 4</OBJECT_NAME><OBJECT_ID>1997-020E</OBJECT_ID><CENTER_NAME>EARTH</CENTER_NAME><REF_FRAME>TEME</REF_FRAME><TIME_SYSTEM>UTC</TIME_SYSTEM><MEAN_ELEMENT_THEORY>SGP4</MEAN_ELEMENT_THEORY></metadata><data><meanElements><EPOCH>2025-04-14T17:12:09.798912</EPOCH><MEAN_MOTION>14.36789774</MEAN_MOTION><ECCENTRICITY>.0002241</ECCENTRICITY><INCLINATION>86.4024</INCLINATION><RA_OF_ASC_NODE>200.3965</RA_OF_ASC_NODE><ARG_OF_PERICENTER>92.4330</ARG_OF_PERICENTER><MEAN_ANOMALY>267.7124</MEAN_ANOMALY></meanElements><tleParameters><EPHEMERIS_TYPE>0</EPHEMERIS_TYPE><CLASSIFICATION_TYPE>U</CLASSIFICATION_TYPE><NORAD_CAT_ID>24796</NORAD_CAT_ID><ELEMENT_SET_NO>999</ELEMENT_SET_NO><REV_AT_EPOCH>46335</REV_AT_EPOCH><BSTAR>.23286E-3</BSTAR><MEAN_MOTION_DOT>.706E-5</MEAN_MOTION_DOT><MEAN_MOTION_DDOT>0</MEAN_MOTION_DDOT></tleParameters></data></segment></body></omm>
<omm id="CCSDS_OMM_VERS" version="2.0">
<header><CREATION_DATE/><ORIGINATOR/></header><body><segment><metadata><OBJECT_NAME>IRIDIUM 914</OBJECT_NAME><OBJECT_ID>1997-030A</OBJECT_ID><CENTER_NAME>EARTH</CENTER_NAME><REF_FRAME>TEME</REF_FRAME><TIME_SYSTEM>UTC</TIME_SYSTEM><MEAN_ELEMENT_THEORY>SGP4</MEAN_ELEMENT_THEORY></metadata><data><meanElements><EPOCH>2025-04-14T21:31:37.228224</EPOCH><MEAN_MOTION>14.40805596</MEAN_MOTION><ECCENTRICITY>.0003716</ECCENTRICITY><INCLINATION>86.3993</INCLINATION><RA_OF_ASC_NODE>209.1060</RA_OF_ASC_NODE><ARG_OF_PERICENTER>83.9353</ARG_OF_PERICENTER><MEAN_ANOMALY>276.2269</MEAN_ANOMALY></meanElements><tleParameters><EPHEMERIS_TYPE>0</EPHEMERIS_TYPE><CLASSIFICATION_TYPE>U</CLASSIFICATION_TYPE><NORAD_CAT_ID>24836</NORAD_CAT_ID><ELEMENT_SET_NO>999</ELEMENT_SET_NO><REV_AT_EPOCH>59801</REV_AT_EPOCH><BSTAR>.31184E-3</BSTAR><MEAN_MOTION_DOT>.1017E-4</MEAN_MOTION_DOT><MEAN_MOTION_DDOT>0</MEAN_MOTION_DDOT></tleParameters></data></segment></body></omm>
<omm id="CCSDS_OMM_VERS" version="2.0">
<header><CREATION_DATE/><ORIGINATOR/></header><body><segment><metadata><OBJECT_NAME>IRIDIUM 16</OBJECT_NAME><OBJECT_ID>1997-030F</OBJECT_ID><CENTER_NAME>EARTH</CENTER_NAME><REF_FRAME>TEME</REF_FRAME><TIME_SYSTEM>UTC</TIME_SYSTEM><MEAN_ELEMENT_THEORY>SGP4</MEAN_ELEMENT_THEORY></metadata><data><meanElements><EPOCH>2025-04-14T21:37:43.421664</EPOCH><MEAN_MOTION>14.38647310</MEAN_MOTION><ECCENTRICITY>.0000135</ECCENTRICITY><INCLINATION>86.4048</INCLINATION><RA_OF_ASC_NODE>231.8391</RA_OF_ASC_NODE><ARG_OF_PERICENTER>262.1245</ARG_OF_PERICENTER><MEAN_ANOMALY>97.9938</MEAN_ANOMALY></meanElements><tleParameters><EPHEMERIS_TYPE>0</EPHEMERIS_TYPE><CLASSIFICATION_TYPE>U</CLASSIFICATION_TYPE><NORAD_CAT_ID>24841</NORAD_CAT_ID><ELEMENT_SET_NO>999</ELEMENT_SET_NO><REV_AT_EPOCH>45790</REV_AT_EPOCH><BSTAR>.32693E-3</BSTAR><MEAN_MOTION_DOT>.1021E-4</MEAN_MOTION_DOT><MEAN_MOTION_DDOT>0</MEAN_MOTION_DDOT></tleParameters></data></segment></body></omm>
<omm id="CCSDS_OMM_VERS" version="2.0">
<header><CREATION_DATE/><ORIGINATOR/></header><body><segment><metadata><OBJECT_NAME>IRIDIUM 911</OBJECT_NAME><OBJECT_ID>1997-030G</OBJECT_ID><CENTER_NAME>EARTH</CENTER_NAME><REF_FRAME>TEME</REF_FRAME><TIME_SYSTEM>UTC</TIME_SYSTEM><MEAN_ELEMENT_THEORY>SGP4</MEAN_ELEMENT_THEORY></metadata><data><meanElements><EPOCH>2025-04-14T20:50:03.942816</EPOCH><MEAN_MOTION>14.47547668</MEAN_MOTION><ECCENTRICITY>.0012505</ECCENTRICITY><INCLINATION>86.4475</INCLINATION><RA_OF_ASC_NODE>230.6890</RA_OF_ASC_NODE><ARG_OF_PERICENTER>314.5988</ARG_OF_PERICENTER><MEAN_ANOMALY>45.4194</MEAN_ANOMALY></meanElements><tleParameters><EPHEMERIS_TYPE>0</EPHEMERIS_TYPE><CLASSIFICATION_TYPE>U</CLASSIFICATION_TYPE><NORAD_CAT_ID>24842</NORAD_CAT_ID><ELEMENT_SET_NO>999</ELEMENT_SET_NO><REV_AT_EPOCH>46592</REV_AT_EPOCH><BSTAR>.36805E-3</BSTAR><MEAN_MOTION_DOT>.1374E-4</MEAN_MOTION_DOT><MEAN_MOTION_DDOT>0</MEAN_MOTION_DDOT></tleParameters></data></segment></body></omm>
<omm id="CCSDS_OMM_VERS" version="2.0">
<header><CREATION_DATE/><ORIGINATOR/></header><body><segment><metadata><OBJECT_NAME>IRIDIUM 17</OBJECT_NAME><OBJECT_ID>1997-034B</OBJECT_ID><CENTER_NAME>EARTH</CENTER_NAME><REF_FRAME>TEME</REF_FRAME><TIME_SYSTEM>UTC</TIME_SYSTEM><MEAN_ELEMENT_THEORY>SGP4</MEAN_ELEMENT_THEORY></metadata><data><meanElements><EPOCH>2025-04-14T22:03:15.976224</EPOCH><MEAN_MOTION>14.37753822</MEAN_MOTION><ECCENTRICITY>.0001621</ECCENTRICITY><INCLINATION>86.3913</INCLINATION><RA_OF_ASC_NODE>261.3578</RA_OF_ASC_NODE><ARG_OF_PERICENTER>143.1545</ARG_OF_PERICENTER><MEAN_ANOMALY>216.9765</MEAN_ANOMALY></meanElements><tleParameters><EPHEMERIS_TYPE>0</EPHEMERIS_TYPE><CLASSIFICATION_TYPE>U</CLASSIFICATION_TYPE><NORAD_CAT_ID>24870</NORAD_CAT_ID><ELEMENT_SET_NO>999</ELEMENT_SET_NO><REV_AT_EPOCH>45449</REV_AT_EPOCH><BSTAR>.33442E-3</BSTAR><MEAN_MOTION_DOT>.1025E-4</MEAN_MOTION_DOT><MEAN_MOTION_DDOT>0</MEAN_MOTION_DDOT></tleParameters></data></segment></body></omm>
<omm id="CCSDS_OMM_VERS" version="2.0">
<header><CREATION_DATE/><ORIGINATOR/></header><body><segment><metadata><OBJECT_NAME>IRIDIUM 920</OBJECT_NAME><OBJECT_ID>1997-034C</OBJECT_ID><CENTER_NAME>EARTH</CENTER_NAME><REF_FRAME>TEME</REF_FRAME><TIME_SYSTEM>UTC</TIME_SYSTEM><MEAN_ELEMENT_THEORY>SGP4</MEAN_ELEMENT_THEORY></metadata><data><meanElements><EPOCH>2025-04-14T21:59:01.058208</EPOCH><MEAN_MOTION>14.41462182</MEAN_MOTION><ECCENTRICITY>.0009564</ECCENTRICITY><INCLINATION>86.3969</INCLINATION><RA_OF_ASC_NODE>240.7183</RA_OF_ASC_NODE><ARG_OF_PERICENTER>294.4624</ARG_OF_PERICENTER><MEAN_ANOMALY>65.5578</MEAN_ANOMALY></meanElements><tleParameters><EPHEMERIS_TYPE>0</EPHEMERIS_TYPE><CLASSIFICATION_TYPE>U</CLASSIFICATION_TYPE><NORAD_CAT_ID>24871</NORAD_CAT_ID><ELEMENT_SET_NO>999</ELEMENT_SET_NO><REV_AT_EPOCH>45746</REV_AT_EPOCH><BSTAR>.31769E-3</BSTAR><MEAN_MOTION_DOT>.105E-4</MEAN_MOTION_DOT><MEAN_MOTION_DDOT>0</MEAN_MOTION_DDOT></tleParameters></data></segment></body></omm>

</ndm>
