IRIDIUM 7               
1 24793U 97020B   25104.69341817  .00000848  00000+0  28588-3 0  9997
2 24793  86.4024 203.4836 0002018  89.4239 270.7189 14.35883780462781
IRIDIUM 5               
1 24795U 97020D   25104.95101529  .00009584  00000+0  80111-3 0  9998
2 24795  86.3839 112.8904 0110513   6.8604 353.4104 14.93662366476021
IRIDIUM 4               
1 24796U 97020E   25104.71678008  .00000706  00000+0  23286-3 0  9991
2 24796  86.4024 200.3965 0002241  92.4330 267.7124 14.36789774463355
IRIDIUM 914             
1 24836U 97030A   25104.89695866  .00001017  00000+0  31184-3 0  9999
2 24836  86.3993 209.1060 0003716  83.9353 276.2269 14.40805596598018
IRIDIUM 16              
1 24841U 97030F   25104.90119701  .00001021  00000+0  32693-3 0  9997
2 24841  86.4048 231.8391 0000135 262.1245  97.9938 14.38647310457906
IRIDIUM 911             
1 24842U 97030G   25104.86810119  .00001374  00000+0  36805-3 0  9994
2 24842  86.4475 230.6890 0012505 314.5988  45.4194 14.47547668465920
IRIDIUM 17              
1 24870U 97034B   25104.91893491  .00001025  00000+0  33442-3 0  9996
2 24870  86.3913 261.3578 0001621 143.1545 216.9765 14.37753822454492
IRIDIUM 920             
1 24871U 97034C   25104.91598447  .00001050  00000+0  31769-3 0  9998
2 24871  86.3969 240.7183 0009564 294.4624  65.5578 14.41462182457460
